[Satellite]
VERSION=1.1
NAME=MOLNIYA 1-42
NICKNAME=MOLNIYA 1-42
TLE1=1 11007U 78080A   15053.69893743  .00005664  00000-0  16672-2 0  9990
TLE2=2 11007  62.3820 105.9976 7251398 255.0441  20.9815  2.31602867287563
